{"fetched_at":"2026-07-05T17:41:39.824Z","source":"https://celestrak.org/NORAD/elements/gp.php?NAME=GLOBAL&FORMAT=JSON","constellation":"blacksky-gen3","records":[{"OBJECT_NAME":"GLOBAL-31","OBJECT_ID":"2025-033B","EPOCH":"2026-07-05T04:22:39.957888","CLASSIFICATION_TYPE":"U","MEAN_MOTION":15.38171179,"ECCENTRICITY":0.00108278,"INCLINATION":58.9969,"RA_OF_ASC_NODE":243.4223,"ARG_OF_PERICENTER":52.4352,"MEAN_ANOMALY":307.7706,"EPHEMERIS_TYPE":0,"NORAD_CAT_ID":63027,"ELEMENT_SET_NO":999,"REV_AT_EPOCH":7709,"BSTAR":0.00051770495,"MEAN_MOTION_DOT":0.000194,"MEAN_MOTION_DDOT":0},{"OBJECT_NAME":"GLOBAL-32","OBJECT_ID":"2025-118B","EPOCH":"2026-07-05T01:30:01.124928","CLASSIFICATION_TYPE":"U","MEAN_MOTION":15.39087371,"ECCENTRICITY":0.00155872,"INCLINATION":58.9931,"RA_OF_ASC_NODE":60.1772,"ARG_OF_PERICENTER":54.6703,"MEAN_ANOMALY":305.5828,"EPHEMERIS_TYPE":0,"NORAD_CAT_ID":64231,"ELEMENT_SET_NO":999,"REV_AT_EPOCH":6099,"BSTAR":0.00062137083,"MEAN_MOTION_DOT":0.00024136,"MEAN_MOTION_DDOT":0},{"OBJECT_NAME":"GLOBAL-33","OBJECT_ID":"2025-267A","EPOCH":"2026-07-04T17:11:54.440448","CLASSIFICATION_TYPE":"U","MEAN_MOTION":15.37131097,"ECCENTRICITY":0.00090855,"INCLINATION":42.02,"RA_OF_ASC_NODE":314.2829,"ARG_OF_PERICENTER":9.2571,"MEAN_ANOMALY":350.8434,"EPHEMERIS_TYPE":0,"NORAD_CAT_ID":66554,"ELEMENT_SET_NO":999,"REV_AT_EPOCH":3474,"BSTAR":0.00063771303,"MEAN_MOTION_DOT":0.00023544,"MEAN_MOTION_DDOT":0},{"OBJECT_NAME":"GLOBAL-34","OBJECT_ID":"2026-043A","EPOCH":"2026-07-05T03:23:05.695296","CLASSIFICATION_TYPE":"U","MEAN_MOTION":15.3296251,"ECCENTRICITY":0.00020924,"INCLINATION":42.021,"RA_OF_ASC_NODE":116.9423,"ARG_OF_PERICENTER":18.1769,"MEAN_ANOMALY":341.9144,"EPHEMERIS_TYPE":0,"NORAD_CAT_ID":68098,"ELEMENT_SET_NO":999,"REV_AT_EPOCH":1858,"BSTAR":0.00055345108,"MEAN_MOTION_DOT":0.00017796,"MEAN_MOTION_DDOT":0}]}
